{"type": "FeatureCollection", "features": [{"type": "Feature", "properties": {"k": "meridian"}, "geometry": {"type": "LineString", "coordinates": [[-107.0, 25.0], [-107.0, 37.0]]}}, {"type": "Feature", "properties": {"k": "meridian"}, "geometry": {"type": "LineString", "coordinates": [[-106.5, 25.0], [-106.5, 37.0]]}}, {"type": "Feature", "properties": {"k": "meridian"}, "geometry": {"type": "LineString", "coordinates": [[-106.0, 25.0], [-106.0, 37.0]]}}, {"type": "Feature", "properties": {"k": "meridian"}, "geometry": {"type": "LineString", "coordinates": [[-105.5, 25.0], [-105.5, 37.0]]}}, {"type": "Feature", "properties": {"k": "meridian"}, "geometry": {"type": "LineString", "coordinates": [[-105.0, 25.0], [-105.0, 37.0]]}}, {"type": "Feature", "properties": {"k": "meridian"}, "geometry": {"type": "LineString", "coordinates": [[-104.5, 25.0], [-104.5, 37.0]]}}, {"type": "Feature", "properties": {"k": "meridian"}, "geometry": {"type": "LineString", "coordinates": [[-104.0, 25.0], [-104.0, 37.0]]}}, {"type": "Feature", "properties": {"k": "meridian"}, "geometry": {"type": "LineString", "coordinates": [[-103.5, 25.0], [-103.5, 37.0]]}}, {"type": "Feature", "properties": {"k": "meridian"}, "geometry": {"type": "LineString", "coordinates": [[-103.0, 25.0], [-103.0, 37.0]]}}, {"type": "Feature", "properties": {"k": "meridian"}, "geometry": {"type": "LineString", "coordinates": [[-102.5, 25.0], [-102.5, 37.0]]}}, {"type": "Feature", "properties": {"k": "meridian"}, "geometry": {"type": "LineString", "coordinates": [[-102.0, 25.0], [-102.0, 37.0]]}}, {"type": "Feature", "properties": {"k": "meridian"}, "geometry": {"type": "LineString", "coordinates": [[-101.5, 25.0], [-101.5, 37.0]]}}, {"type": "Feature", "properties": {"k": "meridian"}, "geometry": {"type": "LineString", "coordinates": [[-101.0, 25.0], [-101.0, 37.0]]}}, {"type": "Feature", "properties": {"k": "meridian"}, "geometry": {"type": "LineString", "coordinates": [[-100.5, 25.0], [-100.5, 37.0]]}}, {"type": "Feature", "properties": {"k": "meridian"}, "geometry": {"type": "LineString", "coordinates": [[-100.0, 25.0], [-100.0, 37.0]]}}, {"type": "Feature", "properties": {"k": "meridian"}, "geometry": {"type": "LineString", "coordinates": [[-99.5, 25.0], [-99.5, 37.0]]}}, {"type": "Feature", "properties": {"k": "meridian"}, "geometry": {"type": "LineString", "coordinates": [[-99.0, 25.0], [-99.0, 37.0]]}}, {"type": "Feature", "properties": {"k": "meridian"}, "geometry": {"type": "LineString", "coordinates": [[-98.5, 25.0], [-98.5, 37.0]]}}, {"type": "Feature", "properties": {"k": "meridian"}, "geometry": {"type": "LineString", "coordinates": [[-98.0, 25.0], [-98.0, 37.0]]}}, {"type": "Feature", "properties": {"k": "meridian"}, "geometry": {"type": "LineString", "coordinates": [[-97.5, 25.0], [-97.5, 37.0]]}}, {"type": "Feature", "properties": {"k": "meridian"}, "geometry": {"type": "LineString", "coordinates": [[-97.0, 25.0], [-97.0, 37.0]]}}, {"type": "Feature", "properties": {"k": "meridian"}, "geometry": {"type": "LineString", "coordinates": [[-96.5, 25.0], [-96.5, 37.0]]}}, {"type": "Feature", "properties": {"k": "meridian"}, "geometry": {"type": "LineString", "coordinates": [[-96.0, 25.0], [-96.0, 37.0]]}}, {"type": "Feature", "properties": {"k": "meridian"}, "geometry": {"type": "LineString", "coordinates": [[-95.5, 25.0], [-95.5, 37.0]]}}, {"type": "Feature", "properties": {"k": "meridian"}, "geometry": {"type": "LineString", "coordinates": [[-95.0, 25.0], [-95.0, 37.0]]}}, {"type": "Feature", "properties": {"k": "meridian"}, "geometry": {"type": "LineString", "coordinates": [[-94.5, 25.0], [-94.5, 37.0]]}}, {"type": "Feature", "properties": {"k": "meridian"}, "geometry": {"type": "LineString", "coordinates": [[-94.0, 25.0], [-94.0, 37.0]]}}, {"type": "Feature", "properties": {"k": "meridian"}, "geometry": {"type": "LineString", "coordinates": [[-93.5, 25.0], [-93.5, 37.0]]}}, {"type": "Feature", "properties": {"k": "meridian"}, "geometry": {"type": "LineString", "coordinates": [[-93.0, 25.0], [-93.0, 37.0]]}}, {"type": "Feature", "properties": {"k": "parallel"}, "geometry": {"type": "LineString", "coordinates": [[-107.0, 25.0], [-93.0, 25.0]]}}, {"type": "Feature", "properties": {"k": "parallel"}, "geometry": {"type": "LineString", "coordinates": [[-107.0, 25.5], [-93.0, 25.5]]}}, {"type": "Feature", "properties": {"k": "parallel"}, "geometry": {"type": "LineString", "coordinates": [[-107.0, 26.0], [-93.0, 26.0]]}}, {"type": "Feature", "properties": {"k": "parallel"}, "geometry": {"type": "LineString", "coordinates": [[-107.0, 26.5], [-93.0, 26.5]]}}, {"type": "Feature", "properties": {"k": "parallel"}, "geometry": {"type": "LineString", "coordinates": [[-107.0, 27.0], [-93.0, 27.0]]}}, {"type": "Feature", "properties": {"k": "parallel"}, "geometry": {"type": "LineString", "coordinates": [[-107.0, 27.5], [-93.0, 27.5]]}}, {"type": "Feature", "properties": {"k": "parallel"}, "geometry": {"type": "LineString", "coordinates": [[-107.0, 28.0], [-93.0, 28.0]]}}, {"type": "Feature", "properties": {"k": "parallel"}, "geometry": {"type": "LineString", "coordinates": [[-107.0, 28.5], [-93.0, 28.5]]}}, {"type": "Feature", "properties": {"k": "parallel"}, "geometry": {"type": "LineString", "coordinates": [[-107.0, 29.0], [-93.0, 29.0]]}}, {"type": "Feature", "properties": {"k": "parallel"}, "geometry": {"type": "LineString", "coordinates": [[-107.0, 29.5], [-93.0, 29.5]]}}, {"type": "Feature", "properties": {"k": "parallel"}, "geometry": {"type": "LineString", "coordinates": [[-107.0, 30.0], [-93.0, 30.0]]}}, {"type": "Feature", "properties": {"k": "parallel"}, "geometry": {"type": "LineString", "coordinates": [[-107.0, 30.5], [-93.0, 30.5]]}}, {"type": "Feature", "properties": {"k": "parallel"}, "geometry": {"type": "LineString", "coordinates": [[-107.0, 31.0], [-93.0, 31.0]]}}, {"type": "Feature", "properties": {"k": "parallel"}, "geometry": {"type": "LineString", "coordinates": [[-107.0, 31.5], [-93.0, 31.5]]}}, {"type": "Feature", "properties": {"k": "parallel"}, "geometry": {"type": "LineString", "coordinates": [[-107.0, 32.0], [-93.0, 32.0]]}}, {"type": "Feature", "properties": {"k": "parallel"}, "geometry": {"type": "LineString", "coordinates": [[-107.0, 32.5], [-93.0, 32.5]]}}, {"type": "Feature", "properties": {"k": "parallel"}, "geometry": {"type": "LineString", "coordinates": [[-107.0, 33.0], [-93.0, 33.0]]}}, {"type": "Feature", "properties": {"k": "parallel"}, "geometry": {"type": "LineString", "coordinates": [[-107.0, 33.5], [-93.0, 33.5]]}}, {"type": "Feature", "properties": {"k": "parallel"}, "geometry": {"type": "LineString", "coordinates": [[-107.0, 34.0], [-93.0, 34.0]]}}, {"type": "Feature", "properties": {"k": "parallel"}, "geometry": {"type": "LineString", "coordinates": [[-107.0, 34.5], [-93.0, 34.5]]}}, {"type": "Feature", "properties": {"k": "parallel"}, "geometry": {"type": "LineString", "coordinates": [[-107.0, 35.0], [-93.0, 35.0]]}}, {"type": "Feature", "properties": {"k": "parallel"}, "geometry": {"type": "LineString", "coordinates": [[-107.0, 35.5], [-93.0, 35.5]]}}, {"type": "Feature", "properties": {"k": "parallel"}, "geometry": {"type": "LineString", "coordinates": [[-107.0, 36.0], [-93.0, 36.0]]}}, {"type": "Feature", "properties": {"k": "parallel"}, "geometry": {"type": "LineString", "coordinates": [[-107.0, 36.5], [-93.0, 36.5]]}}, {"type": "Feature", "properties": {"k": "parallel"}, "geometry": {"type": "LineString", "coordinates": [[-107.0, 37.0], [-93.0, 37.0]]}}]}