{"type": "FeatureCollection", "features": [{"type": "Feature", "properties": {"route": "I-35"}, "geometry": {"type": "LineString", "coordinates": [[-99.5, 27.52], [-98.49, 29.42], [-97.74, 30.27], [-97.13, 31.55], [-97.33, 32.74], [-97.03, 33.2]]}}, {"type": "Feature", "properties": {"route": "I-45"}, "geometry": {"type": "LineString", "coordinates": [[-95.36, 29.76], [-96.05, 30.55], [-96.47, 31.1], [-96.64, 31.9], [-96.85, 32.78]]}}, {"type": "Feature", "properties": {"route": "I-10"}, "geometry": {"type": "LineString", "coordinates": [[-106.49, 31.76], [-104.5, 30.7], [-103.49, 30.8], [-101.5, 30.2], [-100.0, 29.5], [-98.49, 29.42], [-96.0, 29.7], [-95.36, 29.76], [-94.04, 30.1]]}}, {"type": "Feature", "properties": {"route": "I-20"}, "geometry": {"type": "LineString", "coordinates": [[-103.0, 32.0], [-102.08, 31.99], [-100.49, 32.41], [-98.5, 32.55], [-97.03, 32.74], [-95.3, 32.5], [-94.04, 32.5]]}}]}