{"type": "FeatureCollection", "features": [{"type": "Feature", "properties": {"state": "TX"}, "geometry": {"type": "Polygon", "coordinates": [[[-103.04, 36.5], [-100.0, 36.5], [-100.0, 34.56], [-99.2, 34.21], [-97.46, 33.82], [-95.3, 33.87], [-94.04, 33.55], [-94.04, 31.0], [-93.5, 30.3], [-93.83, 29.8], [-95.1, 29.1], [-96.5, 28.4], [-97.1, 27.8], [-97.4, 26.0], [-97.14, 25.84], [-99.1, 26.4], [-100.3, 28.2], [-101.5, 29.8], [-102.3, 29.9], [-103.0, 29.0], [-104.5, 29.7], [-106.5, 31.8], [-106.62, 31.91], [-103.04, 32.0], [-103.04, 36.5]]]}}, {"type": "Feature", "properties": {"state": "OK"}, "geometry": {"type": "Polygon", "coordinates": [[[-103.0, 33.62], [-94.43, 33.62], [-94.43, 37.0], [-103.0, 37.0], [-103.0, 33.62]]]}}, {"type": "Feature", "properties": {"state": "NM"}, "geometry": {"type": "Polygon", "coordinates": [[[-109.05, 31.33], [-103.0, 31.33], [-103.0, 37.0], [-109.05, 37.0], [-109.05, 31.33]]]}}, {"type": "Feature", "properties": {"state": "LA"}, "geometry": {"type": "Polygon", "coordinates": [[[-94.04, 29.0], [-89.0, 29.0], [-89.0, 33.02], [-94.04, 33.02], [-94.04, 29.0]]]}}, {"type": "Feature", "properties": {"state": "AR"}, "geometry": {"type": "Polygon", "coordinates": [[[-94.62, 33.0], [-89.64, 33.0], [-89.64, 36.5], [-94.62, 36.5], [-94.62, 33.0]]]}}]}